[{"OBJECT_NAME":"STARLINK-35564","OBJECT_ID":"2026-005S","EPOCH":"2026-03-09T11:31:06.388320","MEAN_MOTION":15.27590548,"ECCENTRICITY":7.417e-5,"INCLINATION":42.9974,"RA_OF_ASC_NODE":239.2264,"ARG_OF_PERICENTER":224.6993,"MEAN_ANOMALY":135.3799,"EPHEMERIS_TYPE":0,"CLASSIFICATION_TYPE":"U","NORAD_CAT_ID":67420,"ELEMENT_SET_NO":999,"REV_AT_EPOCH":866,"BSTAR":0.00091526055,"MEAN_MOTION_DOT":0.00025017,"MEAN_MOTION_DDOT":0},{"OBJECT_NAME":"CZ-2D DEB","OBJECT_ID":"2010-027D","EPOCH":"2026-03-07T13:36:06.977952","MEAN_MOTION":15.23568143,"ECCENTRICITY":0.0065729,"INCLINATION":97.6621,"RA_OF_ASC_NODE":290.9585,"ARG_OF_PERICENTER":344.0278,"MEAN_ANOMALY":15.8885,"EPHEMERIS_TYPE":0,"CLASSIFICATION_TYPE":"U","NORAD_CAT_ID":38299,"ELEMENT_SET_NO":999,"REV_AT_EPOCH":83553,"BSTAR":0.0024156,"MEAN_MOTION_DOT":0.00061723,"MEAN_MOTION_DDOT":0}]
